ONEWEB-0534             
1 55797U 23029B   26168.30541496  .00000081  00000+0  16805-3 0  9995
2 55797  87.9186 274.4459 0001852 100.7969 259.3373 13.20771784161164
ONEWEB-0556             
1 55798U 23029C   26168.31214512  .00000128  00000+0  28365-3 0  9999
2 55798  87.9184 274.4440 0001589  75.3531 284.7779 13.20774023161163
ONEWEB-0562             
1 55799U 23029D   26168.29867902  .00000056  00000+0  10498-3 0  9992
2 55799  87.9184 274.4276 0002280  78.7442 281.3948 13.20770989161166
ONEWEB-0563             
1 55800U 23029E   26168.29360601 -.00019776  00000+0 -48706-1 0  9991
2 55800  87.9183 274.4589 0001204 103.8462 256.2805 13.20869212161152
ONEWEB-0564             
1 55801U 23029F   26168.05963365  .00000027  00000+0  33594-4 0  9991
2 55801  87.9186 274.4791 0002137  90.4465 269.6913 13.20770664161139
ONEWEB-0638             
1 55802U 23029G   26168.31696489  .00000476  00000+0  12485-2 0  9993
2 55802  87.8954 289.7257 0001717  82.8651 277.2674 13.14503823159414
ONEWEB-0639             
1 55803U 23029H   26168.41100249  .00000103  00000+0  22422-3 0  9999
2 55803  87.9170 304.9312 0001314 128.7965 231.3285 13.19725442158932
ONEWEB-0640             
1 55804U 23029J   26168.40258629  .00000224  00000+0  56893-3 0  9998
2 55804  87.8956 289.6996 0001344  84.4030 275.7253 13.14503072159447
ONEWEB-0641             
1 55805U 23029K   26168.40625701  .00000097  00000+0  20969-3 0  9991
2 55805  87.9179 304.9213 0001781 103.7965 256.3366 13.19725007158949
ONEWEB-0642             
1 55806U 23029L   26168.40152526  .00000164  00000+0  37819-3 0  9999
2 55806  87.9170 304.9340 0001595 126.1193 234.0088 13.19725146158934
ONEWEB-0643             
1 55807U 23029M   26168.37245920 -.00000092  00000+0 -28359-3 0  9998
2 55807  87.8954 289.6927 0001927 121.6575 238.4743 13.14503123159411
ONEWEB-0644             
1 55808U 23029N   26168.39678157  .00000090  00000+0  19360-3 0  9991
2 55808  87.9168 304.9363 0001735 109.5784 250.5536 13.19724433158934
ONEWEB-0645             
1 55809U 23029P   26168.34307621  .00000092  00000+0  19837-3 0  9993
2 55809  87.9168 304.9441 0001404 101.1634 258.9657 13.19724139158925
ONEWEB-0646             
1 55810U 23029Q   26168.36046078  .00000009  00000+0 -91081-5 0  9995
2 55810  87.9168 304.9409 0001762 108.1309 252.0015 13.19725180158913
ONEWEB-0648             
1 55811U 23029R   26168.34072812  .00000177  00000+0  44327-3 0  9993
2 55811  87.8968 289.6728 0001116 121.0516 239.0724 13.14501220159411
ONEWEB-0649             
1 55812U 23029S   26168.38572289  .00000063  00000+0  12399-3 0  9999
2 55812  87.9169 304.9333 0001612 102.2766 257.8548 13.19725515158958
ONEWEB-0650             
1 55813U 23029T   26168.38097379  .00000044  00000+0  77592-4 0  9998
2 55813  87.9169 304.9367 0001568 114.4347 245.6949 13.19725039158924
ONEWEB-0652             
1 55814U 23029U   26168.32169135  .00000266  00000+0  68184-3 0  9995
2 55814  87.8962 289.6838 0002041  98.6947 261.4414 13.14505014159381
ONEWEB-0653             
1 55815U 23029V   26168.38196176  .00000036  00000+0  62735-4 0  9999
2 55815  87.8963 289.6697 0001895  97.9532 262.1813 13.14503638159420
ONEWEB-0654             
1 55816U 23029W   26168.37720340 -.00000011  00000+0 -65003-4 0  9991
2 55816  87.8963 289.6670 0002124  91.9071 268.2302 13.14504537159441
ONEWEB-0656             
1 55817U 23029X   26168.05289213  .00000062  00000+0  12021-3 0  9991
2 55817  87.9198 274.4564 0002291  92.2233 267.9163 13.20773429161131
ONEWEB-0657             
1 55818U 23029Y   26168.37625514  .00000045  00000+0  79520-4 0  9994
2 55818  87.9170 304.9365 0002547 102.1395 258.0023 13.19725104158939
ONEWEB-0658             
1 55819U 23029Z   26168.37151480  .00000022  00000+0  21649-4 0  9995
2 55819  87.9179 304.9130 0001698 110.9378 249.1937 13.19724851158947
ONEWEB-0660             
1 55820U 23029AA  26168.35500460 -.00000068  00000+0 -21910-3 0  9993
2 55820  87.8975 289.6642 0001563  98.5668 261.5639 13.14503334159420
ONEWEB-0661             
1 55821U 23029AB  26168.31378614  .00000173  00000+0  43263-3 0  9994
2 55821  87.8955 289.7175 0001637  94.4854 265.6462 13.14503103159406
ONEWEB-0662             
1 55822U 23029AC  26168.34866902  .00000015  00000+0  55002-5 0  9991
2 55822  87.8955 289.7165 0001581  99.1115 261.0194 13.14502586159457
ONEWEB-0663             
1 55823U 23029AD  26168.31385549  .00000138  00000+0  30808-3 0  9993
2 55823  87.9200 274.4760 0001573 107.4001 252.7305 13.20869608161162
ONEWEB-0664             
1 55824U 23029AE  26168.34245377  .00000106  00000+0  22767-3 0  9991
2 55824  87.9184 274.4515 0001768  86.7224 273.4112 13.20770335161168
ONEWEB-0665             
1 55825U 23029AF  26168.31061318  .00000112  00000+0  26870-3 0  9996
2 55825  87.8955 289.6988 0001556 102.2062 257.9242 13.14504115159426
ONEWEB-0666             
1 55826U 23029AG  26168.33572013  .00000016  00000+0  71315-5 0  9997
2 55826  87.9187 274.4427 0002683 104.3047 255.8385 13.20771451161179
