OBJECT_NAME,OBJECT_ID,EPOCH,MEAN_MOTION,ECCENTRICITY,INCLINATION,RA_OF_ASC_NODE,ARG_OF_PERICENTER,MEAN_ANOMALY,EPHEMERIS_TYPE,CLASSIFICATION_TYPE,NORAD_CAT_ID,ELEMENT_SET_NO,REV_AT_EPOCH,BSTAR,MEAN_MOTION_DOT,MEAN_MOTION_DDOT
ONEWEB-0534,2023-029B,2026-06-17T07:19:47.852544,13.20771784,.00018523,87.9186,274.4459,100.7969,259.3373,0,U,55797,999,16116,.16804879E-3,.81E-6,0
ONEWEB-0556,2023-029C,2026-06-17T07:29:29.338368,13.20774023,.00015896,87.9184,274.4440,75.3531,284.7779,0,U,55798,999,16116,.28364671E-3,.128E-5,0
ONEWEB-0562,2023-029D,2026-06-17T07:10:05.867328,13.20770989,.00022801,87.9184,274.4276,78.7442,281.3948,0,U,55799,999,16116,.10497968E-3,.56E-6,0
ONEWEB-0563,2023-029E,2026-06-17T07:02:47.559264,13.20869212,.00012042,87.9183,274.4589,103.8462,256.2805,0,U,55800,999,16115,-.48705934E-1,-.19776E-3,0
ONEWEB-0564,2023-029F,2026-06-17T01:25:52.347360,13.20770664,.0002137,87.9186,274.4791,90.4465,269.6913,0,U,55801,999,16113,.33594E-4,.27E-6,0
ONEWEB-0638,2023-029G,2026-06-17T07:36:25.766496,13.14503823,.00017173,87.8954,289.7257,82.8651,277.2674,0,U,55802,999,15941,.12484781E-2,.476E-5,0
ONEWEB-0639,2023-029H,2026-06-17T09:51:50.615136,13.19725442,.00013142,87.9170,304.9312,128.7965,231.3285,0,U,55803,999,15893,.2242221E-3,.103E-5,0
ONEWEB-0640,2023-029J,2026-06-17T09:39:43.455456,13.14503072,.00013442,87.8956,289.6996,84.4030,275.7253,0,U,55804,999,15944,.56893357E-3,.224E-5,0
ONEWEB-0641,2023-029K,2026-06-17T09:45:00.605664,13.19725007,.00017818,87.9179,304.9213,103.7965,256.3366,0,U,55805,999,15894,.20969046E-3,.97E-6,0
ONEWEB-0642,2023-029L,2026-06-17T09:38:11.782464,13.19725146,.00015953,87.9170,304.9340,126.1193,234.0088,0,U,55806,999,15893,.37819196E-3,.164E-5,0
ONEWEB-0643,2023-029M,2026-06-17T08:56:20.474880,13.14503123,.00019278,87.8954,289.6927,121.6575,238.4743,0,U,55807,999,15941,-.28358739E-3,-.92E-6,0
ONEWEB-0644,2023-029N,2026-06-17T09:31:21.927648,13.19724433,.00017354,87.9168,304.9363,109.5784,250.5536,0,U,55808,999,15893,.19359774E-3,.9E-6,0
ONEWEB-0645,2023-029P,2026-06-17T08:14:01.784544,13.19724139,.00014043,87.9168,304.9441,101.1634,258.9657,0,U,55809,999,15892,.19837171E-3,.92E-6,0
ONEWEB-0646,2023-029Q,2026-06-17T08:39:03.811392,13.19725180,.00017627,87.9168,304.9409,108.1309,252.0015,0,U,55810,999,15891,-.9108095E-5,.9E-7,0
ONEWEB-0648,2023-029R,2026-06-17T08:10:38.909568,13.14501220,.00011164,87.8968,289.6728,121.0516,239.0724,0,U,55811,999,15941,.44327216E-3,.177E-5,0
ONEWEB-0649,2023-029S,2026-06-17T09:15:26.457696,13.19725515,.00016124,87.9169,304.9333,102.2766,257.8548,0,U,55812,999,15895,.12398763E-3,.63E-6,0
ONEWEB-0650,2023-029T,2026-06-17T09:08:36.135456,13.19725039,.00015686,87.9169,304.9367,114.4347,245.6949,0,U,55813,999,15892,.77591973E-4,.44E-6,0
ONEWEB-0652,2023-029U,2026-06-17T07:43:14.132640,13.14505014,.00020415,87.8962,289.6838,98.6947,261.4414,0,U,55814,999,15938,.6818399E-3,.266E-5,0
ONEWEB-0653,2023-029V,2026-06-17T09:10:01.496064,13.14503638,.00018954,87.8963,289.6697,97.9532,262.1813,0,U,55815,999,15942,.62735349E-4,.36E-6,0
ONEWEB-0654,2023-029W,2026-06-17T09:03:10.373760,13.14504537,.00021244,87.8963,289.6670,91.9071,268.2302,0,U,55816,999,15944,-.65003085E-4,-.11E-6,0
ONEWEB-0656,2023-029X,2026-06-17T01:16:09.880032,13.20773429,.0002291,87.9198,274.4564,92.2233,267.9163,0,U,55817,999,16113,.12021065E-3,.62E-6,0
ONEWEB-0657,2023-029Y,2026-06-17T09:01:48.444096,13.19725104,.00025472,87.9170,304.9365,102.1395,258.0023,0,U,55818,999,15893,.79519813E-4,.45E-6,0
ONEWEB-0658,2023-029Z,2026-06-17T08:54:58.878720,13.19724851,.00016987,87.9179,304.9130,110.9378,249.1937,0,U,55819,999,15894,.2164907E-4,.22E-6,0
ONEWEB-0660,2023-029AA,2026-06-17T08:31:12.397440,13.14503334,.0001563,87.8975,289.6642,98.5668,261.5639,0,U,55820,999,15942,-.21910312E-3,-.68E-6,0
ONEWEB-0661,2023-029AB,2026-06-17T07:31:51.122496,13.14503103,.00016374,87.8955,289.7175,94.4854,265.6462,0,U,55821,999,15940,.43263012E-3,.173E-5,0
ONEWEB-0662,2023-029AC,2026-06-17T08:22:05.003328,13.14502586,.00015813,87.8955,289.7165,99.1115,261.0194,0,U,55822,999,15945,.550015E-5,.15E-6,0
ONEWEB-0663,2023-029AD,2026-06-17T07:31:57.114336,13.20869608,.00015738,87.9200,274.4760,107.4001,252.7305,0,U,55823,999,16116,.30807758E-3,.138E-5,0
ONEWEB-0664,2023-029AE,2026-06-17T08:13:08.005728,13.20770335,.00017689,87.9184,274.4515,86.7224,273.4112,0,U,55824,999,16116,.22766553E-3,.106E-5,0
ONEWEB-0665,2023-029AF,2026-06-17T07:27:16.978752,13.14504115,.00015565,87.8955,289.6988,102.2062,257.9242,0,U,55825,999,15942,.26870296E-3,.112E-5,0
ONEWEB-0666,2023-029AG,2026-06-17T08:03:26.219232,13.20771451,.00026831,87.9187,274.4427,104.3047,255.8385,0,U,55826,999,16117,.7131471E-5,.16E-6,0
